[{"OBJECT_ID":"2006-033B","OBJECT_NAME":"SYRACUSE 3B","NORAD_CAT_ID":"29273","OBJECT_TYPE":"PAYLOAD","PERIOD":"1436.100","INCLINATION":"0.0102","APOGEE":"35797.886","PERIGEE":"35775.463","ECCENTRICITY":"0.0002659","MEAN_MOTION":"1.00271507","TLE_LINE1":"1 29273U 06033B   16238.88284251 -.00000071 +00000-0 +00000-0 0  9992","TLE_LINE2":"2 29273 000.0102 108.0432 0002659 063.7843 115.3408 01.00271507036799","LAUNCH_DATE":"2006-08-11","LAUNCH_SITE":"FRENCH GUIANA","OWNER":"FRANCE","ORBIT_TYPE":"Geosynchronous","OPERATIONAL_STATUS":"Operational","satInfo":{"lng":46.428201436057456,"lat":-0.580892244398006,"elevation":-9.134097572133264,"azimuth":268.57179856394254,"range":42738.241539137605,"height":35820.32923360585,"velocity":3.0732802099891},"x":217,"y":-197,"dx":2.1182983899090084,"dy":2.2266259632950365},{"OBJECT_ID":"2006-034A","OBJECT_NAME":"KOREASAT 5","NORAD_CAT_ID":"29349","OBJECT_TYPE":"PAYLOAD","PERIOD":"1436.121","INCLINATION":"0.015","APOGEE":"35790.802","PERIGEE":"35783.372","ECCENTRICITY":"8.81e-05","MEAN_MOTION":"1.00270036","TLE_LINE1":"1 29349U 06034A   16238.76091507 -.00000385  00000-0  00000+0 0  9991","TLE_LINE2":"2 29349   0.0150 121.1137 0000881  92.3279 147.9694  1.00270036 36716","LAUNCH_DATE":"2006-08-22","LAUNCH_SITE":"SEA LAUNCH","OWNER":"SOUTH KOREA","ORBIT_TYPE":"Geosynchronous","OPERATIONAL_STATUS":"Operational","satInfo":{"lng":52.946436423602165,"lat":-0.7613167131224932,"elevation":-9.312561947377164,"azimuth":262.05356357639783,"range":42745.48414597582,"height":35807.693124773075,"velocity":3.0738015518638906},"x":239,"y":-173,"dx":1.8521540836250148,"dy":2.45311663618998},{"OBJECT_ID":"2006-034B","OBJECT_NAME":"BLOCK DM-SL R/B","NORAD_CAT_ID":"29350","OBJECT_TYPE":"ROCKET BODY","PERIOD":"678.762","INCLINATION":"0.7296","APOGEE":"35527.714","PERIGEE":"2884.458","ECCENTRICITY":"0.6379568","MEAN_MOTION":"2.1215069","TLE_LINE1":"1 29350U 06034B   16238.81613514 -.00000028 +00000-0 +00000-0 0  9992","TLE_LINE2":"2 29350 000.7296 046.9914 6379568 008.4112 188.5149 02.12150690077598","LAUNCH_DATE":"2006-08-22","LAUNCH_SITE":"SEA LAUNCH","OWNER":"SEA LAUNCH DEMO","ORBIT_TYPE":"Highly Elliptical Orbit","OPERATIONAL_STATUS":"N/A, derelict rocket body","satInfo":{"lng":113.46315254536043,"lat":-0.580745426550294,"elevation":-9.722719468120172,"azimuth":201.53684745463957,"range":40006.970169598186,"height":33056.21974819614,"velocity":2.1532208975213907},"x":254,"y":105,"dx":-0.8573247456127046,"dy":1.975184678475138},{"OBJECT_ID":"2006-043A","OBJECT_NAME":"DIRECTV 9S","NORAD_CAT_ID":"29494","OBJECT_TYPE":"PAYLOAD","PERIOD":"1436.096","INCLINATION":"0.0127","APOGEE":"35799.430","PERIGEE":"35773.735","ECCENTRICITY":"0.0003047","MEAN_MOTION":"1.00271834","TLE_LINE1":"1 29494U 06043A   16239.34169606 -.00000142  00000-0  00000+0 0  9994","TLE_LINE2":"2 29494   0.0127 195.0257 0003047 331.8462 190.0447  1.00271834 36190","LAUNCH_DATE":"2006-10-13","LAUNCH_SITE":"FRENCH GUIANA","OWNER":"UNITED STATES OF AMERICA","ORBIT_TYPE":"Geosynchronous","OPERATIONAL_STATUS":"Operational","satInfo":{"lng":-104.80644261377302,"lat":0.4308423261197886,"elevation":-8.152204510583035,"azimuth":59.80644261377298,"range":42596.79326024707,"height":35789.4009158957,"velocity":3.07454350089854},"x":-294,"y":73,"dx":-0.7857133367249042,"dy":-2.972452235345434},{"OBJECT_ID":"2006-043B","OBJECT_NAME":"OPTUS D1","NORAD_CAT_ID":"29495","OBJECT_TYPE":"PAYLOAD","PERIOD":"1436.100","INCLINATION":"0.0405","APOGEE":"35801.168","PERIGEE":"35772.158","ECCENTRICITY":"0.000344","MEAN_MOTION":"1.00271548","TLE_LINE1":"1 29495U 06043B   16238.84658787 -.00000138 +00000-0 +00000-0 0  9998","TLE_LINE2":"2 29495 000.0405 312.2904 0003440 209.9667 277.0270 01.00271548036193","LAUNCH_DATE":"2006-10-13","LAUNCH_SITE":"FRENCH GUIANA","OWNER":"AUSTRALIA","ORBIT_TYPE":"Geosynchronous","OPERATIONAL_STATUS":"Operational","satInfo":{"lng":-83.16692627402846,"lat":0.341722200993284,"elevation":-8.232014752011766,"azimuth":38.16692627402843,"range":42642.7028414265,"height":35825.94153118253,"velocity":3.0729823781576857},"x":-303,"y":-34,"dx":0.3656146341383672,"dy":-3.0511549675117347},{"OBJECT_ID":"2006-049A","OBJECT_NAME":"XM-4","NORAD_CAT_ID":"29520","OBJECT_TYPE":"PAYLOAD","PERIOD":"1436.087","INCLINATION":"0.0069","APOGEE":"35786.816","PERIGEE":"35786.024","ECCENTRICITY":"9.4e-06","MEAN_MOTION":"1.00272414","TLE_LINE1":"1 29520U 06049A   16239.22206819 -.00000051  00000-0  00000+0 0  9994","TLE_LINE2":"2 29520   0.0069 256.1058 0000094 309.8612  93.6607  1.00272414 36072","LAUNCH_DATE":"2006-10-30","LAUNCH_SITE":"SEA LAUNCH","OWNER":"UNITED STATES OF AMERICA","ORBIT_TYPE":"Geosynchronous","OPERATIONAL_STATUS":"Operational","satInfo":{"lng":-105.4599567278675,"lat":1.5760018099895927,"elevation":-7.032671430957444,"azimuth":60.45995672786748,"range":42461.77462128058,"height":35780.10773450966,"velocity":3.0749494081126794},"x":-293,"y":76,"dx":-0.8196734035223374,"dy":-2.9636884745213394},{"OBJECT_ID":"2006-049B","OBJECT_NAME":"BLOCK DM-SL R/B","NORAD_CAT_ID":"29521","OBJECT_TYPE":"ROCKET BODY","PERIOD":"657.923","INCLINATION":"0.4057","APOGEE":"36053.874","PERIGEE":"1305.559","ECCENTRICITY":"0.6933618","MEAN_MOTION":"2.18870388","TLE_LINE1":"1 29521U 06049B   16238.70308968 -.00000011 +00000-0 +00000-0 0  9992","TLE_LINE2":"2 29521 000.4057 057.4201 6933618 010.9546 008.0369 02.18870388078508","LAUNCH_DATE":"2006-10-30","LAUNCH_SITE":"SEA LAUNCH","OWNER":"SEA LAUNCH DEMO","ORBIT_TYPE":"Highly Elliptical Orbit","OPERATIONAL_STATUS":"N/A, derelict rocket body","satInfo":{"lng":-130.14961506852904,"lat":-1.3245179429539151,"elevation":-10.69814222034861,"azimuth":85.14961506852903,"range":39014.965803228835,"height":31968.937081581094,"velocity":2.209519603690342},"x":-209,"y":164,"dx":-1.424666796867115,"dy":-1.688875779030631},{"OBJECT_ID":"2006-051A","OBJECT_NAME":"ARABSAT 4B","NORAD_CAT_ID":"29526","OBJECT_TYPE":"PAYLOAD","PERIOD":"1436.135","INCLINATION":"0.0563","APOGEE":"35793.867","PERIGEE":"35780.838","ECCENTRICITY":"0.0001545","MEAN_MOTION":"1.00269088","TLE_LINE1":"1 29526U 06051A   16239.11160700  .00000116  00000-0  00000+0 0  9990","TLE_LINE2":"2 29526   0.0563 315.3196 0001545 245.6662 199.9749  1.00269088 35970","LAUNCH_DATE":"2006-11-08","LAUNCH_SITE":"TYURATAM MISSILE AND SPACE COMPLEX","OWNER":"ARAB SATELLITE COMMUNICATIONS ORGANIZATION","ORBIT_TYPE":"Geosynchronous","OPERATIONAL_STATUS":"Operational","satInfo":{"lng":60.557624562278065,"lat":0.7936398233742955,"elevation":-7.802236310400648,"azimuth":254.44237543772192,"range":42532.62510161213,"height":35764.78290710627,"velocity":3.075334292925986},"x":261,"y":-141,"dx":1.5116743014227831,"dy":2.6781564218067087},{"OBJECT_ID":"2006-054A","OBJECT_NAME":"WILDBLUE 1","NORAD_CAT_ID":"29643","OBJECT_TYPE":"PAYLOAD","PERIOD":"1436.133","INCLINATION":"0.0412","APOGEE":"35795.119","PERIGEE":"35779.501","ECCENTRICITY":"0.0001852","MEAN_MOTION":"1.00269241","TLE_LINE1":"1 29643U 06054A   16238.31198453 -.00000075  00000-0  00000+0 0  9995","TLE_LINE2":"2 29643   0.0412 263.7481 0001852 270.8307 160.5488  1.00269241 35619","LAUNCH_DATE":"2006-12-08","LAUNCH_SITE":"FRENCH GUIANA","OWNER":"UNITED STATES OF AMERICA","ORBIT_TYPE":"Geosynchronous","OPERATIONAL_STATUS":"Operational","satInfo":{"lng":-106.68665853339157,"lat":1.339801794874129,"elevation":-7.263832649512823,"azimuth":61.68665853339154,"range":42489.737365672045,"height":35782.11160082687,"velocity":3.074881827681716},"x":-292,"y":82,"dx":-0.8829138213902104,"dy":-2.9453966521005936},{"OBJECT_ID":"2006-054B","OBJECT_NAME":"AMC-18","NORAD_CAT_ID":"29644","OBJECT_TYPE":"PAYLOAD","PERIOD":"1436.102","INCLINATION":"0.0544","APOGEE":"35796.893","PERIGEE":"35776.519","ECCENTRICITY":"0.0002416","MEAN_MOTION":"1.00271393","TLE_LINE1":"1 29644U 06054B   16238.61855453 -.00000116  00000-0  00000+0 0  9995","TLE_LINE2":"2 29644   0.0544 291.1668 0002416 228.9749 291.8770  1.00271393 35634","LAUNCH_DATE":"2006-12-08","LAUNCH_SITE":"FRENCH GUIANA","OWNER":"SOCIÉTÉ EUROPÉENNE DES SATELLITES","ORBIT_TYPE":"Geosynchronous","OPERATIONAL_STATUS":"Operational","satInfo":{"lng":-105.3337848575717,"lat":0.38403242949023114,"elevation":-8.1982165382683,"azimuth":60.33378485757167,"range":42600.73746096967,"height":35788.195673952185,"velocity":3.0745572709900255},"x":-294,"y":75,"dx":-0.8130413424003372,"dy":-2.9651081241913406},{"OBJECT_ID":"2006-056A","OBJECT_NAME":"MEASAT 3","NORAD_CAT_ID":"29648","OBJECT_TYPE":"PAYLOAD","PERIOD":"1436.151","INCLINATION":"0.0258","APOGEE":"35803.597","PERIGEE":"35771.728","ECCENTRICITY":"0.0003779","MEAN_MOTION":"1.00267983","TLE_LINE1":"1 29648U 06056A   16238.80744811 -.00000268 +00000-0 +00000-0 0  9996","TLE_LINE2":"2 29648 000.0258 160.1942 0003779 001.2357 195.2008 01.00267983014537","LAUNCH_DATE":"2006-12-11","LAUNCH_SITE":"TYURATAM MISSILE AND SPACE COMPLEX","OWNER":"MALAYSIA","ORBIT_TYPE":"Geosynchronous","OPERATIONAL_STATUS":"Operational","satInfo":{"lng":58.85062082373229,"lat":-0.7755161456132454,"elevation":-9.330720500541132,"azimuth":256.1493791762677,"range":42725.636668848594,"height":35786.05201058376,"velocity":3.074673697747979},"x":256,"y":-148,"dx":1.590439824040373,"dy":2.631372173169287}]